{
  "type": "FeatureCollection",
  "features": [
    {
      "type": "Feature",
      "properties": {
        "norad_id": 34790,
        "name": "COSMOS 2251 DEB",
        "group": "cosmos-2251-debris",
        "lat": -67.64804442725816,
        "lon": 82.28230680040927,
        "alt_km": 749.7683007632213,
        "timestamp": "2025-12-26T21:25:53.404637+00:00",
        "meta_object_name": "COSMOS 2251 DEB",
        "meta_object_id": "1993-036AAT",
        "meta_epoch": "2025-12-25T15:51:16.162272",
        "meta_mean_motion": 14.24671167,
        "meta_eccentricity": 0.0100473,
        "meta_inclination": 74.0524,
        "meta_ra_of_asc_node": 220.442,
        "meta_arg_of_pericenter": 279.3563,
        "meta_mean_anomaly": 137.0748,
        "meta_ephemeris_type": 0,
        "meta_classification_type": "U",
        "meta_norad_cat_id": 34790,
        "meta_element_set_no": 999,
        "meta_rev_at_epoch": 86757,
        "meta_bstar": 0.00054898,
        "meta_mean_motion_dot": 1.32e-05,
        "meta_mean_motion_ddot": 0,
        "tle_line1": "1 34790U 93036AAT 25359.66060373  .00001320  00000+0  54898-3 0  9991",
        "tle_line2": "2 34790  74.0524 220.4420 0100473 279.3563 137.0748 14.24671167867573"
      },
      "geometry": {
        "type": "Point",
        "coordinates": [
          82.28230680040927,
          -67.64804442725816
        ]
      }
    },
    {
      "type": "Feature",
      "properties": {
        "norad_id": 34792,
        "name": "COSMOS 2251 DEB",
        "group": "cosmos-2251-debris",
        "lat": -0.8956627726827947,
        "lon": 142.58868447436308,
        "alt_km": 713.1589531613636,
        "timestamp": "2025-12-26T21:25:53.404647+00:00",
        "meta_object_name": "COSMOS 2251 DEB",
        "meta_object_id": "1993-036AAV",
        "meta_epoch": "2025-12-26T10:02:07.595808",
        "meta_mean_motion": 14.56073254,
        "meta_eccentricity": 0.00123635,
        "meta_inclination": 74.018,
        "meta_ra_of_asc_node": 143.7464,
        "meta_arg_of_pericenter": 238.8998,
        "meta_mean_anomaly": 152.1537,
        "meta_ephemeris_type": 0,
        "meta_classification_type": "U",
        "meta_norad_cat_id": 34792,
        "meta_element_set_no": 999,
        "meta_rev_at_epoch": 87849,
        "meta_bstar": 0.0011716851,
        "meta_mean_motion_dot": 5.144e-05,
        "meta_mean_motion_ddot": 0,
        "tle_line1": "1 34792U 93036AAV 25360.41814347  .00005144  00000+0  11717-2 0  9996",
        "tle_line2": "2 34792  74.0180 143.7464 0012363 238.8998 152.1537 14.56073254878495"
      },
      "geometry": {
        "type": "Point",
        "coordinates": [
          142.58868447436308,
          -0.8956627726827947
        ]
      }
    },
    {
      "type": "Feature",
      "properties": {
        "norad_id": 34793,
        "name": "COSMOS 2251 DEB",
        "group": "cosmos-2251-debris",
        "lat": -25.219097152785654,
        "lon": -143.5461901345243,
        "alt_km": 740.6226592109897,
        "timestamp": "2025-12-26T21:25:53.404657+00:00",
        "meta_object_name": "COSMOS 2251 DEB",
        "meta_object_id": "1993-036AAW",
        "meta_epoch": "2025-12-26T15:01:40.569600",
        "meta_mean_motion": 14.38665465,
        "meta_eccentricity": 0.00509202,
        "meta_inclination": 74.0014,
        "meta_ra_of_asc_node": 224.7124,
        "meta_arg_of_pericenter": 15.346,
        "meta_mean_anomaly": 17.4984,
        "meta_ephemeris_type": 0,
        "meta_classification_type": "U",
        "meta_norad_cat_id": 34793,
        "meta_element_set_no": 999,
        "meta_rev_at_epoch": 87530,
        "meta_bstar": 0.00022493787,
        "meta_mean_motion_dot": 6.73e-06,
        "meta_mean_motion_ddot": 0,
        "tle_line1": "1 34793U 93036AAW 25360.62616400  .00000673  00000+0  22494-3 0  9997",
        "tle_line2": "2 34793  74.0014 224.7124 0050920  15.3460  17.4984 14.38665465875305"
      },
      "geometry": {
        "type": "Point",
        "coordinates": [
          -143.5461901345243,
          -25.219097152785654
        ]
      }
    },
    {
      "type": "Feature",
      "properties": {
        "norad_id": 34796,
        "name": "COSMOS 2251 DEB",
        "group": "cosmos-2251-debris",
        "lat": -37.77692856773495,
        "lon": 22.63309400908368,
        "alt_km": 709.9405308089463,
        "timestamp": "2025-12-26T21:25:53.404667+00:00",
        "meta_object_name": "COSMOS 2251 DEB",
        "meta_object_id": "1993-036AAZ",
        "meta_epoch": "2025-12-25T13:03:59.133024",
        "meta_mean_motion": 14.48745914,
        "meta_eccentricity": 0.0100284,
        "meta_inclination": 74.0282,
        "meta_ra_of_asc_node": 192.3362,
        "meta_arg_of_pericenter": 291.6358,
        "meta_mean_anomaly": 98.4563,
        "meta_ephemeris_type": 0,
        "meta_classification_type": "U",
        "meta_norad_cat_id": 34796,
        "meta_element_set_no": 999,
        "meta_rev_at_epoch": 88213,
        "meta_bstar": 0.00055203,
        "meta_mean_motion_dot": 2.189e-05,
        "meta_mean_motion_ddot": 0,
        "tle_line1": "1 34796U 93036AAZ 25359.54443441  .00002189  00000+0  55203-3 0  9990",
        "tle_line2": "2 34796  74.0282 192.3362 0100284 291.6358  98.4563 14.48745914882133"
      },
      "geometry": {
        "type": "Point",
        "coordinates": [
          22.63309400908368,
          -37.77692856773495
        ]
      }
    },
    {
      "type": "Feature",
      "properties": {
        "norad_id": 34797,
        "name": "COSMOS 2251 DEB",
        "group": "cosmos-2251-debris",
        "lat": 45.44941861645339,
        "lon": 90.58707683623985,
        "alt_km": 780.8803758439553,
        "timestamp": "2025-12-26T21:25:53.404676+00:00",
        "meta_object_name": "COSMOS 2251 DEB",
        "meta_object_id": "1993-036ABA",
        "meta_epoch": "2025-12-22T12:22:54.757056",
        "meta_mean_motion": 14.42950692,
        "meta_eccentricity": 0.00710542,
        "meta_inclination": 73.9783,
        "meta_ra_of_asc_node": 81.7691,
        "meta_arg_of_pericenter": 193.6898,
        "meta_mean_anomaly": 166.2334,
        "meta_ephemeris_type": 0,
        "meta_classification_type": "U",
        "meta_norad_cat_id": 34797,
        "meta_element_set_no": 999,
        "meta_rev_at_epoch": 87556,
        "meta_bstar": 0.0021692417,
        "meta_mean_motion_dot": 7.461e-05,
        "meta_mean_motion_ddot": 0,
        "tle_line1": "1 34797U 93036ABA 25356.51591154  .00007461  00000+0  21692-2 0  9992",
        "tle_line2": "2 34797  73.9783  81.7691 0071054 193.6898 166.2334 14.42950692875560"
      },
      "geometry": {
        "type": "Point",
        "coordinates": [
          90.58707683623985,
          45.44941861645339
        ]
      }
    },
    {
      "type": "Feature",
      "properties": {
        "norad_id": 34814,
        "name": "COSMOS 2251 DEB",
        "group": "cosmos-2251-debris",
        "lat": 73.42971837475855,
        "lon": 15.340070822948206,
        "alt_km": 767.6524308519392,
        "timestamp": "2025-12-26T21:25:53.404687+00:00",
        "meta_object_name": "COSMOS 2251 DEB",
        "meta_object_id": "1993-036ABD",
        "meta_epoch": "2025-12-23T04:46:16.254336",
        "meta_mean_motion": 14.3693492,
        "meta_eccentricity": 0.00554769,
        "meta_inclination": 73.8962,
        "meta_ra_of_asc_node": 306.0405,
        "meta_arg_of_pericenter": 193.3771,
        "meta_mean_anomaly": 230.9861,
        "meta_ephemeris_type": 0,
        "meta_classification_type": "U",
        "meta_norad_cat_id": 34814,
        "meta_element_set_no": 999,
        "meta_rev_at_epoch": 87483,
        "meta_bstar": 0.00068608274,
        "meta_mean_motion_dot": 2.041e-05,
        "meta_mean_motion_ddot": 0,
        "tle_line1": "1 34814U 93036ABD 25357.19879924  .00002041  00000+0  68608-3 0  9999",
        "tle_line2": "2 34814  73.8962 306.0405 0055476 193.3771 230.9861 14.36934920874833"
      },
      "geometry": {
        "type": "Point",
        "coordinates": [
          15.340070822948206,
          73.42971837475855
        ]
      }
    },
    {
      "type": "Feature",
      "properties": {
        "norad_id": 34815,
        "name": "COSMOS 2251 DEB",
        "group": "cosmos-2251-debris",
        "lat": -11.655907302046865,
        "lon": 37.390995337483965,
        "alt_km": 636.629348161372,
        "timestamp": "2025-12-26T21:25:53.404697+00:00",
        "meta_object_name": "COSMOS 2251 DEB",
        "meta_object_id": "1993-036ABE",
        "meta_epoch": "2025-12-26T14:03:50.056992",
        "meta_mean_motion": 14.78464086,
        "meta_eccentricity": 0.0058668,
        "meta_inclination": 74.044,
        "meta_ra_of_asc_node": 214.6101,
        "meta_arg_of_pericenter": 280.8281,
        "meta_mean_anomaly": 78.6295,
        "meta_ephemeris_type": 0,
        "meta_classification_type": "U",
        "meta_norad_cat_id": 34815,
        "meta_element_set_no": 999,
        "meta_rev_at_epoch": 88832,
        "meta_bstar": 0.00075168265,
        "meta_mean_motion_dot": 5.613e-05,
        "meta_mean_motion_ddot": 0,
        "tle_line1": "1 34815U 93036ABE 25360.58599603  .00005613  00000+0  75168-3 0  9997",
        "tle_line2": "2 34815  74.0440 214.6101 0058668 280.8281  78.6295 14.78464086888323"
      },
      "geometry": {
        "type": "Point",
        "coordinates": [
          37.390995337483965,
          -11.655907302046865
        ]
      }
    }
  ]
}